{
  "type": "FeatureCollection",
  "features": [
    {
      "type": "Feature",
      "properties": {
        "norad_id": 58701,
        "name": "TIANMU-1 16",
        "group": "weather",
        "lat": 16.957634395482174,
        "lon": 178.73796865401894,
        "alt_km": 495.0055657915491,
        "timestamp": "2025-12-26T05:31:12.142464+00:00",
        "meta_object_name": "TIANMU-1 16",
        "meta_object_id": "2024-004B",
        "meta_epoch": "2025-12-25T23:08:40.043904",
        "meta_mean_motion": 15.24609359,
        "meta_eccentricity": 0.00044371,
        "meta_inclination": 97.457,
        "meta_ra_of_asc_node": 180.7625,
        "meta_arg_of_pericenter": 235.6994,
        "meta_mean_anomaly": 124.3824,
        "meta_ephemeris_type": 0,
        "meta_classification_type": "U",
        "meta_norad_cat_id": 58701,
        "meta_element_set_no": 999,
        "meta_rev_at_epoch": 10936,
        "meta_bstar": 0.00028579493,
        "meta_mean_motion_dot": 6.979e-05,
        "meta_mean_motion_ddot": 0,
        "tle_line1": "1 58701U 24004B   25359.96435236  .00006979  00000+0  28579-3 0  9997",
        "tle_line2": "2 58701  97.4570 180.7625 0004437 235.6994 124.3824 15.24609359109367"
      },
      "geometry": {
        "type": "Point",
        "coordinates": [
          178.73796865401894,
          16.957634395482174
        ]
      }
    },
    {
      "type": "Feature",
      "properties": {
        "norad_id": 58702,
        "name": "TIANMU-1 17",
        "group": "weather",
        "lat": 74.34318069573148,
        "lon": 29.319090356855764,
        "alt_km": 486.3888061698508,
        "timestamp": "2025-12-26T05:31:12.142475+00:00",
        "meta_object_name": "TIANMU-1 17",
        "meta_object_id": "2024-004C",
        "meta_epoch": "2025-12-25T22:45:56.486880",
        "meta_mean_motion": 15.2465173,
        "meta_eccentricity": 0.00036057,
        "meta_inclination": 97.4604,
        "meta_ra_of_asc_node": 181.1637,
        "meta_arg_of_pericenter": 236.3797,
        "meta_mean_anomaly": 123.7096,
        "meta_ephemeris_type": 0,
        "meta_classification_type": "U",
        "meta_norad_cat_id": 58702,
        "meta_element_set_no": 999,
        "meta_rev_at_epoch": 10935,
        "meta_bstar": 0.00028033854,
        "meta_mean_motion_dot": 6.852e-05,
        "meta_mean_motion_ddot": 0,
        "tle_line1": "1 58702U 24004C   25359.94857045  .00006852  00000+0  28034-3 0  9998",
        "tle_line2": "2 58702  97.4604 181.1637 0003605 236.3797 123.7096 15.24651730109352"
      },
      "geometry": {
        "type": "Point",
        "coordinates": [
          29.319090356855764,
          74.34318069573148
        ]
      }
    },
    {
      "type": "Feature",
      "properties": {
        "norad_id": 58703,
        "name": "TIANMU-1 18",
        "group": "weather",
        "lat": -14.569338909089794,
        "lon": -0.31014362233895726,
        "alt_km": 495.0006098079566,
        "timestamp": "2025-12-26T05:31:12.142485+00:00",
        "meta_object_name": "TIANMU-1 18",
        "meta_object_id": "2024-004D",
        "meta_epoch": "2025-12-25T22:22:06.267936",
        "meta_mean_motion": 15.24634513,
        "meta_eccentricity": 0.00030053,
        "meta_inclination": 97.4621,
        "meta_ra_of_asc_node": 181.3453,
        "meta_arg_of_pericenter": 232.8958,
        "meta_mean_anomaly": 127.2005,
        "meta_ephemeris_type": 0,
        "meta_classification_type": "U",
        "meta_norad_cat_id": 58703,
        "meta_element_set_no": 999,
        "meta_rev_at_epoch": 10935,
        "meta_bstar": 0.00030862925,
        "meta_mean_motion_dot": 7.548e-05,
        "meta_mean_motion_ddot": 0,
        "tle_line1": "1 58703U 24004D   25359.93201699  .00007548  00000+0  30863-3 0  9992",
        "tle_line2": "2 58703  97.4621 181.3453 0003005 232.8958 127.2005 15.24634513109353"
      },
      "geometry": {
        "type": "Point",
        "coordinates": [
          -0.31014362233895726,
          -14.569338909089794
        ]
      }
    },
    {
      "type": "Feature",
      "properties": {
        "norad_id": 58990,
        "name": "INSAT-3DS",
        "group": "weather",
        "lat": 0.0025165995714120245,
        "lon": -100.12428966763478,
        "alt_km": 35780.99938328771,
        "timestamp": "2025-12-26T05:31:12.142496+00:00",
        "meta_object_name": "INSAT-3DS",
        "meta_object_id": "2024-033A",
        "meta_epoch": "2025-12-25T21:36:38.577600",
        "meta_mean_motion": 1.00271067,
        "meta_eccentricity": 0.00013046,
        "meta_inclination": 0.0618,
        "meta_ra_of_asc_node": 99.1945,
        "meta_arg_of_pericenter": 176.9675,
        "meta_mean_anomaly": 224.761,
        "meta_ephemeris_type": 0,
        "meta_classification_type": "U",
        "meta_norad_cat_id": 58990,
        "meta_element_set_no": 999,
        "meta_rev_at_epoch": 4533,
        "meta_bstar": 0,
        "meta_mean_motion_dot": -1.34e-06,
        "meta_mean_motion_ddot": 0,
        "tle_line1": "1 58990U 24033A   25359.90044650 -.00000134  00000+0  00000+0 0  9992",
        "tle_line2": "2 58990   0.0618  99.1945 0001304 176.9675 224.7610  1.00271067 45335"
      },
      "geometry": {
        "type": "Point",
        "coordinates": [
          -100.12428966763478,
          0.0025165995714120245
        ]
      }
    },
    {
      "type": "Feature",
      "properties": {
        "norad_id": 59051,
        "name": "METEOR-M2 4",
        "group": "weather",
        "lat": 78.8753023997433,
        "lon": -172.10981601772446,
        "alt_km": 813.3335454338603,
        "timestamp": "2025-12-26T05:31:12.142507+00:00",
        "meta_object_name": "METEOR-M2 4",
        "meta_object_id": "2024-039A",
        "meta_epoch": "2025-12-26T00:00:04.092768",
        "meta_mean_motion": 14.22403295,
        "meta_eccentricity": 0.00063563,
        "meta_inclination": 98.6785,
        "meta_ra_of_asc_node": 316.7022,
        "meta_arg_of_pericenter": 318.438,
        "meta_mean_anomaly": 41.6314,
        "meta_ephemeris_type": 0,
        "meta_classification_type": "U",
        "meta_norad_cat_id": 59051,
        "meta_element_set_no": 999,
        "meta_rev_at_epoch": 9464,
        "meta_bstar": 3.9903539e-05,
        "meta_mean_motion_dot": 4.5e-07,
        "meta_mean_motion_ddot": 0,
        "tle_line1": "1 59051U 24039A   25360.00004737  .00000045  00000+0  39904-4 0  9992",
        "tle_line2": "2 59051  98.6785 316.7022 0006356 318.4380  41.6314 14.22403295 94647"
      },
      "geometry": {
        "type": "Point",
        "coordinates": [
          -172.10981601772446,
          78.8753023997433
        ]
      }
    },
    {
      "type": "Feature",
      "properties": {
        "norad_id": 60133,
        "name": "GOES 19",
        "group": "weather",
        "lat": -0.004408015680723741,
        "lon": 102.59293253696372,
        "alt_km": 35789.8390369093,
        "timestamp": "2025-12-26T05:31:12.142521+00:00",
        "meta_object_name": "GOES 19",
        "meta_object_id": "2024-119A",
        "meta_epoch": "2025-12-25T04:31:42.625056",
        "meta_mean_motion": 1.0027105,
        "meta_eccentricity": 0.00010365,
        "meta_inclination": 0.0152,
        "meta_ra_of_asc_node": 183.0311,
        "meta_arg_of_pericenter": 137.5029,
        "meta_mean_anomaly": 126.1624,
        "meta_ephemeris_type": 0,
        "meta_classification_type": "U",
        "meta_norad_cat_id": 60133,
        "meta_element_set_no": 999,
        "meta_rev_at_epoch": 521,
        "meta_bstar": 0,
        "meta_mean_motion_dot": -2.27e-06,
        "meta_mean_motion_ddot": 0,
        "tle_line1": "1 60133U 24119A   25359.18868779 -.00000227  00000+0  00000+0 0  9998",
        "tle_line2": "2 60133   0.0152 183.0311 0001036 137.5029 126.1624  1.00271050  5213"
      },
      "geometry": {
        "type": "Point",
        "coordinates": [
          102.59293253696372,
          -0.004408015680723741
        ]
      }
    },
    {
      "type": "Feature",
      "properties": {
        "norad_id": 65815,
        "name": "FENGYUN 3H",
        "group": "weather",
        "lat": -34.410518434285095,
        "lon": 113.53604616960952,
        "alt_km": 832.003555104724,
        "timestamp": "2025-12-26T05:31:12.142532+00:00",
        "meta_object_name": "FENGYUN 3H",
        "meta_object_id": "2025-219A",
        "meta_epoch": "2025-12-25T21:44:49.027200",
        "meta_mean_motion": 14.19908122,
        "meta_eccentricity": 8.575e-05,
        "meta_inclination": 98.6602,
        "meta_ra_of_asc_node": 299.2116,
        "meta_arg_of_pericenter": 109.7072,
        "meta_mean_anomaly": 250.4197,
        "meta_ephemeris_type": 0,
        "meta_classification_type": "U",
        "meta_norad_cat_id": 65815,
        "meta_element_set_no": 999,
        "meta_rev_at_epoch": 1279,
        "meta_bstar": 6.4604567e-05,
        "meta_mean_motion_dot": 9.4e-07,
        "meta_mean_motion_ddot": 0,
        "tle_line1": "1 65815U 25219A   25359.90612300  .00000094  00000+0  64605-4 0  9996",
        "tle_line2": "2 65815  98.6602 299.2116 0000857 109.7072 250.4197 14.19908122 12798"
      },
      "geometry": {
        "type": "Point",
        "coordinates": [
          113.53604616960952,
          -34.410518434285095
        ]
      }
    }
  ]
}